              TDR Cartesian                         TDR Cartesian  
    -----------------------------------       --------------------------------
     X    =       -6148727.88                 X    =        -1874132.26
     Y    =      -18761435.97  feet           Y    =        -5718485.68  meter
     Z    =      -10281389.86                 Z    =        -3133767.63
     XDOT =      12768.479904                 XDOT =        3891.832675
     YDOT =     -12908.956509  feet/sec       YDOT =       -3934.649944  meter/sec
     ZDOT =      15941.177234                 ZDOT =        4858.870821
  
  
    The mean element set is posted at the UTC for which position is
    just north of the next ascending node relative to the above
    vector time
 
 
    TWO LINE MEAN ELEMENT SET
  
    ISS
    1 25544U 98067A   16078.17207622  .00016717  00000-0  10270-3 0  9073
    2 25544  51.6396 151.9550 0001995 314.9497  45.1494 15.54184047 30828
  
  
    Satellite: ISS
    Catalog Number: 25544
    Epoch time:      16078.17207622   =   yrday.fracday
    Element set:     907
    Inclination:       51.6396  deg
    RA of node:       151.9550  deg
    Eccentricity:     .0001995     
    Arg of perigee:   314.9497  deg
    Mean anomaly:      45.1494  deg
    Mean motion:   15.54184047  rev/day
    Decay rate:    1.67170E-04  rev/day^2
    Epoch rev:            3082
    Checksum:              325
 
 
    Coasting Arc #9 (Orbit 3093)
    ---------------------------------------
 
    Vector Time (GMT): 2016/078/21:26:42.000
    Vector Time (MET): N/A
    Weight (LBS)     : 890369.9
 
              M50 Cartesian                         M50 Keplerian  
    -----------------------------------       --------------------------------
     X    =       -3235316.43                 A    =         6777439.28  meter
     Y    =       -2822037.77  meter          E    =           .0001874
     Z    =        5242809.19                 I    =           51.81720
     XDOT =       5899.291120                 Wp   =          105.90107
     YDOT =      -4785.322887  meter/sec      RA   =          147.27545  deg
     ZDOT =       1063.825003                 TA   =          333.93133
                                              MA   =          333.94076
                                              Ha   =            220.539  n.mi
                                              Hp   =            214.990
 
              M50 Cartesian                         J2K Cartesian  
    -----------------------------------       --------------------------------
     X    =      -10614555.21                 X    =        -3228986.25
     Y    =       -9258654.09  feet           Y    =        -2858181.20  meter
     Z    =       17200817.55                 Z    =         5227108.74
     XDOT =      19354.629658                 XDOT =        5947.195802
     YDOT =     -15699.878239  feet/sec       YDOT =       -4719.085115  meter/sec
     ZDOT =       3490.239510                 ZDOT =        1092.598853
 
              TDR Cartesian                         TDR Cartesian  
    -----------------------------------       --------------------------------
     X    =        1700629.61                 X    =          518351.91
     Y    =       14065049.48  feet           Y    =         4287027.08  meter
     Z    =       17133062.31                 Z    =         5222157.39
     XDOT =     -23838.586591                 XDOT =       -7266.001193
     YDOT =      -1525.645872  feet/sec       YDOT =        -465.016862  meter/sec
     ZDOT =       3615.980589                 ZDOT =        1102.150883
  
  
    The mean element set is posted at the UTC for which position is
    just north of the next ascending node relative to the above
    vector time
 
 
    TWO LINE MEAN ELEMENT SET
  
    ISS
    1 25544U 98067A   16078.94366965  .00016717  00000-0  10270-3 0  9085
    2 25544  51.6418 148.1113 0002113 319.2021  40.8973 15.54234519 30947
  
  
    Satellite: ISS
    Catalog Number: 25544
    Epoch time:      16078.94366965   =   yrday.fracday
    Element set:     908
    Inclination:       51.6418  deg
    RA of node:       148.1113  deg
    Eccentricity:     .0002113     
    Arg of perigee:   319.2021  deg
    Mean anomaly:      40.8973  deg
    Mean motion:   15.54234519  rev/day
    Decay rate:    1.67170E-04  rev/day^2
    Epoch rev:            3094
    Checksum:              306
 
 
    Coasting Arc #10 (Orbit 3096)
    ---------------------------------------
 
    Vector Time (GMT): 2016/079/03:12:07.000
    Vector Time (MET): N/A
    Weight (LBS)     : 905478.2
 
              M50 Cartesian                         M50 Keplerian  
    -----------------------------------       --------------------------------
     X    =       -4682089.46                 A    =         6788008.19  meter
     Y    =        4647343.31  meter          E    =           .0008573
     Z    =       -1580469.10                 I    =           51.85754
     XDOT =      -4407.076871                 Wp   =           24.01653
     YDOT =      -2487.156853  meter/sec      RA   =          146.05754  deg
     ZDOT =       5760.972851                 TA   =          318.75182
                                              MA   =          318.81656
                                              Ha   =            220.436  n.mi
                                              Hp   =            215.047
 
              M50 Cartesian                         J2K Cartesian  
    -----------------------------------       --------------------------------
     X    =      -15361185.90                 X    =        -4726032.08
     Y    =       15247189.33  feet           Y    =         4594739.18  meter
     Z    =       -5185266.07                 Z    =        -1603320.54
     XDOT =     -14458.913620                 XDOT =       -4406.921308
     YDOT =      -8159.963430  feet/sec       YDOT =       -2536.438135  meter/sec
     ZDOT =      18900.829565                 ZDOT =        5739.565326
 
              TDR Cartesian                         TDR Cartesian  
    -----------------------------------       --------------------------------
     X    =         327403.41                 X    =           99792.56
     Y    =      -21616859.29  feet           Y    =        -6588818.71  meter
     Z    =       -5285262.58                 Z    =        -1610948.03
     XDOT =      14557.650635                 XDOT =        4437.171914
     YDOT =      -4363.442730  feet/sec       YDOT =       -1329.977344  meter/sec
     ZDOT =      18808.229115                 ZDOT =        5732.748234
  
  
    The mean element set is posted at the UTC for which position is
    just north of the next ascending node relative to the above
    vector time
 
 
    TWO LINE MEAN ELEMENT SET
  
    ISS
    1 25544U 98067A   16079.13656610  .00016717  00000-0  10270-3 0  9097
    2 25544  51.6405 147.1480 0002131 317.6972  42.4016 15.54203255 30978
  
  
    Satellite: ISS
    Catalog Number: 25544
    Epoch time:      16079.13656610   =   yrday.fracday
    Element set:     909
    Inclination:       51.6405  deg
    RA of node:       147.1480  deg
    Eccentricity:     .0002131     
    Arg of perigee:   317.6972  deg
    Mean anomaly:      42.4016  deg
    Mean motion:   15.54203255  rev/day
    Decay rate:    1.67170E-04  rev/day^2
    Epoch rev:            3097
    Checksum:              289
 
 
    Coasting Arc #11 (Orbit 3112)
    ---------------------------------------
 
    Vector Time (GMT): 2016/080/03:12:07.000
    Vector Time (MET): N/A
    Weight (LBS)     : 905478.2
 
              M50 Cartesian                         M50 Keplerian  
    -----------------------------------       --------------------------------
     X    =        5360094.99                 A    =         6788985.08  meter
     Y    =       -4155979.01  meter          E    =           .0009663
     Z    =        -167344.39                 I    =           51.88762
     XDOT =       2787.400455                 Wp   =          133.71184
     YDOT =       3828.800738  meter/sec      RA   =          141.10259  deg
     ZDOT =      -6029.879152                 TA   =           48.08461
                                              MA   =           48.00225
                                              Ha   =            220.511  n.mi
                                              Hp   =            214.922
 
              M50 Cartesian                         J2K Cartesian  
    -----------------------------------       --------------------------------
     X    =       17585613.50                 X    =         5406982.69
     Y    =      -13635101.75  feet           Y    =        -4095776.73  meter
     Z    =        -549030.16                 Z    =         -141192.24
     XDOT =       9145.014616                 XDOT =        2773.668913
     YDOT =      12561.682212  feet/sec       YDOT =        3859.893689  meter/sec
     ZDOT =     -19783.068083                 ZDOT =       -6016.372698
 
              TDR Cartesian                         TDR Cartesian  
    -----------------------------------       --------------------------------
     X    =       -2691821.47                 X    =         -820467.18
     Y    =       22091544.00  feet           Y    =         6733502.61  meter
     Z    =        -434760.67                 Z    =         -132515.05
     XDOT =     -13837.310972                 XDOT =       -4217.612384
     YDOT =      -2056.028559  feet/sec       YDOT =        -626.677505  meter/sec
     ZDOT =     -19724.997068                 ZDOT =       -6012.179106
  
  
    The mean element set is posted at the UTC for which position is
    just north of the next ascending node relative to the above
    vector time
 
 
    TWO LINE MEAN ELEMENT SET
  
    ISS
    1 25544U 98067A   16080.16534108  .00016717  00000-0  10270-3 0  9101
    2 25544  51.6410 142.0188 0002224 325.5296  34.5712 15.54243792 31137
  
